NORAD_CAT_ID,OBJECT_NAME,OBJECT_TYPE,EPOCH,MEAN_MOTION,ECCENTRICITY,INCLINATION,RA_OF_ASC_NODE,ARG_OF_PERICENTER,MEAN_ANOMALY,BSTAR,MEAN_MOTION_DOT,MEAN_MOTION_DDOT,TLE_LINE0,TLE_LINE1,TLE_LINE2,SEMIMAJOR_AXIS,PERIOD,APOGEE,PERIGEE,DECAYED
53533.0,STARLINK-4493,PAYLOAD,2024-08-01 04:04:02,15.088289,0.0001199,53.2172,182.6139,85.2873,274.8256,-5.7205e-06,-3.79e-06,0.0,0 STARLINK-4493,1 53533U 22101G   24214.16947817 -.00000379  00000-0 -57205-5 0  9996,2 53533  53.2172 182.6139 0001199  85.2873 274.8256 15.08828900107771,6917.914,95.438,540.609,538.95,0.0
53533.0,STARLINK-4493,PAYLOAD,2024-08-01 05:39:25,15.08837146,0.0001338,53.216,182.3156,87.5417,272.5728,4.1312e-05,3.7e-06,0.0,0 STARLINK-4493,1 53533U 22101G   24214.23571321  .00000370  00000-0  41312-4 0  9997,2 53533  53.2160 182.3156 0001338  87.5417 272.5728 15.08837146107780,6917.889,95.438,540.68,538.828,0.0
53533.0,STARLINK-4493,PAYLOAD,2024-08-01 21:33:16,15.08842352,0.0001,53.2161,179.3467,75.3901,284.7202,4.6915e-05,4.59e-06,0.0,0 STARLINK-4493,1 53533U 22101G   24214.89810716  .00000459  00000-0  46915-4 0  9995,2 53533  53.2161 179.3467 0001000  75.3901 284.7202 15.08842352107889,6917.873,95.437,540.43,539.046,0.0
53533.0,STARLINK-4493,PAYLOAD,2024-08-02 07:05:35,15.0884762,0.0001566,53.2176,177.5568,93.8733,266.2439,-3.2357e-05,-8.03e-06,0.0,0 STARLINK-4493,1 53533U 22101G   24215.29554857 -.00000803  00000-0 -32357-4 0  9991,2 53533  53.2176 177.5568 0001566  93.8733 266.2439 15.08847620107949,6917.857,95.437,540.805,538.639,0.0
53533.0,STARLINK-4493,PAYLOAD,2024-08-02 15:02:30,15.08845186,0.0001438,53.2176,176.0698,102.5884,257.5269,7.9779e-05,9.82e-06,0.0,0 STARLINK-4493,1 53533U 22101G   24215.62674613  .00000982  00000-0  79779-4 0  9996,2 53533  53.2176 176.0698 0001438 102.5884 257.5269 15.08845186107994,6917.865,95.437,540.724,538.735,0.0
53533.0,STARLINK-4493,PAYLOAD,2024-08-03 03:45:36,15.08830583,0.0001287,53.2181,173.6912,105.1749,254.9385,0.00010262,1.345e-05,0.0,0 STARLINK-4493,1 53533U 22101G   24216.15667434  .00001345  00000-0  10262-3 0  9993,2 53533  53.2181 173.6912 0001287 105.1749 254.9385 15.08830583108078,6917.909,95.438,540.665,538.884,0.0
53533.0,STARLINK-4493,PAYLOAD,2024-08-03 21:14:51,15.08816457,0.000161,53.2183,170.4205,111.1829,248.9336,0.00038218,5.796e-05,0.0,0 STARLINK-4493,1 53533U 22101G   24216.88531781  .00005796  00000-0  38218-3 0  9993,2 53533  53.2183 170.4205 0001610 111.1829 248.9336 15.08816457108181,6917.952,95.439,540.931,538.704,0.0
53533.0,STARLINK-4493,PAYLOAD,2024-08-04 06:47:09,15.08839347,0.000131,53.2161,168.6347,98.7865,261.3276,4.1578e-05,3.74e-06,0.0,0 STARLINK-4493,1 53533U 22101G   24217.28275362  .00000374  00000-0  41578-4 0  9999,2 53533  53.2161 168.6347 0001310  98.7865 261.3276 15.08839347108242,6917.882,95.438,540.654,538.841,0.0
53533.0,STARLINK-4493,PAYLOAD,2024-08-05 12:59:27,15.08860432,0.0001346,53.2168,162.9899,98.6422,261.4723,0.00020257,2.939e-05,0.0,0 STARLINK-4493,1 53533U 22101G   24218.54129465  .00002939  00000-0  20257-3 0  9990,2 53533  53.2168 162.9899 0001346  98.6422 261.4723 15.08860432108433,6917.818,95.436,540.614,538.752,0.0
53533.0,STARLINK-4493,PAYLOAD,2024-08-06 03:18:00,15.08808854,0.0001485,53.218,160.315,112.1278,247.9872,-0.00012991,-2.353e-05,0.0,0 STARLINK-4493,1 53533U 22101G   24219.13750298 -.00002353  00000-0 -12991-3 0  9998,2 53533  53.2180 160.3150 0001485 112.1278 247.9872 15.08808854108528,6917.976,95.44,540.868,538.813,0.0
53533.0,STARLINK-4493,PAYLOAD,2024-08-06 12:50:18,15.08824558,0.0001292,53.2171,158.525,101.9443,258.1694,-5.1505e-05,-1.107e-05,0.0,0 STARLINK-4493,1 53533U 22101G   24219.53493491 -.00001107  00000-0 -51505-4 0  9992,2 53533  53.2171 158.5250 0001292 101.9443 258.1694 15.08824558108585,6917.928,95.439,540.686,538.899,0.0
53533.0,STARLINK-4493,PAYLOAD,2024-08-07 01:33:22,15.088407,0.0001452,53.2165,156.1492,102.9575,257.1579,9.096e-05,1.16e-05,0.0,0 STARLINK-4493,1 53533U 22101G   24220.06484398  .00001160  00000-0  90960-4 0  9993,2 53533  53.2165 156.1492 0001452 102.9575 257.1579 15.08840700108662,6917.878,95.438,540.748,538.739,0.0
53533.0,STARLINK-4493,PAYLOAD,2024-08-08 04:34:55,15.08844118,0.0001401,53.2159,151.0875,117.6769,242.4365,0.00033654,5.073e-05,0.0,0 STARLINK-4493,1 53533U 22101G   24221.19092281  .00005073  00000-0  33654-3 0  9997,2 53533  53.2159 151.0875 0001401 117.6769 242.4365 15.08844118108832,6917.868,95.437,540.702,538.764,0.0
53533.0,STARLINK-4493,PAYLOAD,2024-08-09 12:22:36,15.08867562,0.0001182,53.2164,145.1477,94.0063,266.1064,0.00031014,4.655e-05,0.0,0 STARLINK-4493,1 53533U 22101G   24222.51570551  .00004655  00000-0  31014-3 0  9998,2 53533  53.2164 145.1477 0001182  94.0063 266.1064 15.08867562109031,6917.796,95.436,540.479,538.843,0.0
53533.0,STARLINK-4493,PAYLOAD,2024-08-09 18:44:11,15.08824097,0.0001327,53.2165,143.9564,81.5674,278.5468,-0.00025476,-4.338e-05,0.0,0 STARLINK-4493,1 53533U 22101G   24222.78068739 -.00004338  00000-0 -25476-3 0  9992,2 53533  53.2165 143.9564 0001327  81.5674 278.5468 15.08824097109070,6917.929,95.439,540.712,538.876,0.0
53533.0,STARLINK-4493,PAYLOAD,2024-08-10 04:16:29,15.08843466,0.0001336,53.217,142.1681,102.0623,258.0519,5.9211e-05,6.55e-06,0.0,0 STARLINK-4493,1 53533U 22101G   24223.17811800  .00000655  00000-0  59211-4 0  9992,2 53533  53.2170 142.1681 0001336 102.0623 258.0519 15.08843466109138,6917.87,95.437,540.659,538.811,0.0
53533.0,STARLINK-4493,PAYLOAD,2024-08-10 21:45:44,15.08824238,0.0001619,53.2177,138.8972,111.7187,248.3978,0.00061783,9.554e-05,0.0,0 STARLINK-4493,1 53533U 22101G   24223.90676621  .00009554  00000-0  61783-3 0  9996,2 53533  53.2177 138.8972 0001619 111.7187 248.3978 15.08824238109245,6917.929,95.439,540.914,538.674,0.0
53533.0,STARLINK-4493,PAYLOAD,2024-08-11 21:36:31,15.08839637,0.0001492,53.2158,134.4321,116.4119,243.7027,0.00029315,4.381e-05,0.0,0 STARLINK-4493,1 53533U 22101G   24224.90036009  .00004381  00000-0  29315-3 0  9995,2 53533  53.2158 134.4321 0001492 116.4119 243.7027 15.08839637109399,6917.881,95.438,540.779,538.714,0.0
53533.0,STARLINK-4493,PAYLOAD,2024-08-12 03:58:03,15.08845313,0.00015,53.2141,133.2507,74.3582,285.7576,0.00021883,3.197e-05,0.0,0 STARLINK-4493,1 53533U 22101G   24225.16531897  .00003197  00000-0  21883-3 0  9995,2 53533  53.2141 133.2507 0001500  74.3582 285.7576 15.08845313109438,6917.864,95.437,540.767,538.691,0.0
53533.0,STARLINK-4493,PAYLOAD,2024-08-12 18:16:31,15.08859911,0.0001442,53.2139,130.5746,80.9004,279.2151,0.00033487,5.048e-05,0.0,0 STARLINK-4493,1 53533U 22101G   24225.76147066  .00005048  00000-0  33487-3 0  9992,2 53533  53.2139 130.5746 0001442  80.9004 279.2151 15.08859911109523,6917.82,95.436,540.682,538.687,0.0
53533.0,STARLINK-4493,PAYLOAD,2024-08-12 23:02:40,15.08851083,0.0001261,53.2164,129.6799,101.5708,258.5426,0.00017218,2.454e-05,0.0,0 STARLINK-4493,1 53533U 22101G   24225.96019041  .00002454  00000-0  17218-3 0  9997,2 53533  53.2164 129.6799 0001261 101.5708 258.5426 15.08851083109558,6917.847,95.437,540.584,538.839,0.0
53533.0,STARLINK-4493,PAYLOAD,2024-08-13 03:48:53,15.08779934,0.0001436,53.2149,128.7894,94.1026,266.0131,-0.00093127,-0.00015054,0.0,0 STARLINK-4493,1 53533U 22101G   24226.15894859 -.00015054  00000-0 -93127-3 0  9992,2 53533  53.2149 128.7894 0001436  94.1026 266.0131 15.08779934109585,6918.064,95.441,540.922,538.936,0.0
53533.0,STARLINK-4493,PAYLOAD,2024-08-13 10:10:25,15.08790912,0.0001233,53.2158,127.6033,96.3812,263.732,-0.00061145,-9.993e-05,0.0,0 STARLINK-4493,1 53533U 22101G   24226.42391011 -.00009993  00000-0 -61145-3 0  9994,2 53533  53.2158 127.6033 0001233  96.3812 263.7320 15.08790912109628,6918.03,95.441,540.748,539.042,0.0
53533.0,STARLINK-4493,PAYLOAD,2024-08-13 18:07:21,15.08796838,0.0001225,53.2135,126.1129,69.1346,290.9778,-0.0004467,-7.382e-05,0.0,0 STARLINK-4493,1 53533U 22101G   24226.75511487 -.00007382  00000-0 -44670-3 0  9995,2 53533  53.2135 126.1129 0001225  69.1346 290.9778 15.08796838109671,6918.012,95.44,540.725,539.03,0.0
53533.0,STARLINK-4493,PAYLOAD,2024-08-13 22:53:31,15.0880733,0.0001571,53.2173,125.2255,89.0997,271.0175,-0.00022682,-3.893e-05,0.0,0 STARLINK-4493,1 53533U 22101G   24226.95383542 -.00003893  00000-0 -22682-3 0  9998,2 53533  53.2173 125.2255 0001571  89.0997 271.0175 15.08807330109705,6917.98,95.44,540.932,538.758,0.0
53533.0,STARLINK-4493,PAYLOAD,2024-08-14 00:28:54,15.08812138,0.0001335,53.214,124.9252,78.0061,282.108,-0.00017366,-3.048e-05,0.0,0 STARLINK-4493,1 53533U 22101G   24227.02007339 -.00003048  00000-0 -17366-3 0  9999,2 53533  53.2140 124.9252 0001335  78.0061 282.1080 15.08812138109711,6917.966,95.439,540.754,538.907,0.0
53533.0,STARLINK-4493,PAYLOAD,2024-08-14 10:01:13,15.08822871,0.0001217,53.2156,123.1404,82.0649,278.0481,0.00021345,3.109e-05,0.0,0 STARLINK-4493,1 53533U 22101G   24227.41751509  .00003109  00000-0  21345-3 0  9995,2 53533  53.2156 123.1404 0001217  82.0649 278.0481 15.08822871109774,6917.933,95.439,540.64,538.956,0.0
53533.0,STARLINK-4493,PAYLOAD,2024-08-14 21:08:55,15.08831709,4.52e-05,53.2152,121.0551,78.7773,281.327,0.00045948,7.031e-05,0.0,0 STARLINK-4493,1 53533U 22101G   24227.88119326  .00007031  00000-0  45948-3 0  9994,2 53533  53.2152 121.0551 0000452  78.7773 281.3270 15.08831709109841,6917.906,95.438,540.083,539.458,0.0
53533.0,STARLINK-4493,PAYLOAD,2024-08-15 00:19:40,15.08849747,0.00013,53.2148,120.4605,77.5879,282.5259,0.00051532,7.925e-05,0.0,0 STARLINK-4493,1 53533U 22101G   24228.01366427  .00007925  00000-0  51532-3 0  9994,2 53533  53.2148 120.4605 0001300  77.5879 282.5259 15.08849747109869,6917.851,95.437,540.615,538.816,0.0
53533.0,STARLINK-4493,PAYLOAD,2024-08-15 14:38:09,15.08834954,0.0001161,53.2151,117.7857,91.9046,268.2079,0.00020202,2.928e-05,0.0,0 STARLINK-4493,1 53533U 22101G   24228.60983048  .00002928  00000-0  20202-3 0  9991,2 53533  53.2151 117.7857 0001161  91.9046 268.2079 15.08834954109957,6917.896,95.438,540.564,538.958,0.0
